1 08820U 76039A   03358.68437144  .00000007  00000-0  10000-3 0  9945
2 08820 109.8370 246.8253 0044308 260.8131  98.7623  6.38664561389222
